[{"OBJECT_NAME":"ICEYE-X7","OBJECT_ID":"2020-068L","EPOCH":"2026-03-09T22:52:28.702272","MEAN_MOTION":15.29152508,"ECCENTRICITY":0.00068409,"INCLINATION":97.7412,"RA_OF_ASC_NODE":31.2076,"ARG_OF_PERICENTER":332.3045,"MEAN_ANOMALY":27.7829,"EPHEMERIS_TYPE":0,"CLASSIFICATION_TYPE":"U","NORAD_CAT_ID":46496,"ELEMENT_SET_NO":999,"REV_AT_EPOCH":29961,"BSTAR":0.0005654802,"MEAN_MOTION_DOT":0.00015947,"MEAN_MOTION_DDOT":0},{"OBJECT_NAME":"STARLINK-32465","OBJECT_ID":"2024-196K","EPOCH":"2026-03-09T08:52:07.169088","MEAN_MOTION":15.30195036,"ECCENTRICITY":0.00010424,"INCLINATION":53.1601,"RA_OF_ASC_NODE":103.105,"ARG_OF_PERICENTER":102.3724,"MEAN_ANOMALY":257.7394,"EPHEMERIS_TYPE":0,"CLASSIFICATION_TYPE":"U","NORAD_CAT_ID":61716,"ELEMENT_SET_NO":999,"REV_AT_EPOCH":7710,"BSTAR":4.3802998e-5,"MEAN_MOTION_DOT":9.38e-6,"MEAN_MOTION_DDOT":0}]
